ONEWEB-0410             
1 51622U 22012A   26183.25264223 -.00000033  00000+0 -11690-3 0  9996
2 51622  87.9144   2.8609 0002493  59.2120 300.9257 13.17648948215682
ONEWEB-0411             
1 51623U 22012B   26183.13214419 -.00000057  00000+0 -20045-3 0  9996
2 51623  87.8822  33.2902 0002049 100.8338 259.3020 13.10370996211241
ONEWEB-0415             
1 51624U 22012C   26183.12875033  .00000158  00000+0  41662-3 0  9999
2 51624  87.8818  33.2891 0002085  90.5874 269.5492 13.10371299211247
ONEWEB-0416             
1 51625U 22012D   26183.14061818 -.00000464  00000+0 -13654-2 0  9991
2 51625  87.8816  33.3041 0002172  88.4491 271.6885 13.10371896211289
ONEWEB-0422             
1 51626U 22012E   26183.03495783 -.00000010  00000+0 -59888-4 0  9990
2 51626  87.9142   2.9051 0001439 107.7835 252.3454 13.17650285215762
ONEWEB-0423             
1 51627U 22012F   26183.02819195  .00000012  00000+0 -15835-5 0  9993
2 51627  87.9137   2.9111 0001821  86.8974 273.2366 13.17651191215659
ONEWEB-0425             
1 51628U 22012G   26182.99808435 -.00000573  00000+0 -16778-2 0  9991
2 51628  87.8820  33.3167 0002026  75.7729 284.3623 13.10370910211262
ONEWEB-0428             
1 51629U 22012H   26183.13044632  .00000065  00000+0  14912-3 0  9993
2 51629  87.8815  33.2968 0001816  85.8343 274.2992 13.10371228211243
ONEWEB-0431             
1 51630U 22012J   26183.09973108  .00000330  00000+0  90769-3 0  9998
2 51630  87.8823  33.2954 0002117 102.0848 258.0516 13.10376883211295
ONEWEB-0434             
1 51631U 22012K   26183.00159720 -.00000532  00000+0 -15613-2 0  9996
2 51631  87.8825  33.3408 0001950  67.0388 293.0945 13.10369483211266
ONEWEB-0435             
1 51632U 22012L   26183.08458037 -.00000337  00000+0 -10020-2 0  9998
2 51632  87.8820  33.3094 0001666  94.6887 265.4430 13.10373864211267
ONEWEB-0436             
1 51633U 22012M   26183.24757184  .00000055  00000+0  10919-3 0  9995
2 51633  87.9141   2.8501 0001735  96.6744 263.4585 13.17649659215662
ONEWEB-0438             
1 51634U 22012N   26183.14569771 -.00000659  00000+0 -19239-2 0  9993
2 51634  87.8817  33.3007 0001953  80.3361 279.7987 13.10373287211306
ONEWEB-0439             
1 51635U 22012P   26183.14909276 -.00000693  00000+0 -20218-2 0  9999
2 51635  87.8819  33.2876 0001832  83.6537 276.4799 13.10372528211288
ONEWEB-0442             
1 51636U 22012Q   26183.01219312 -.00000016  00000+0 -74135-4 0  9999
2 51636  87.9134   2.9284 0002116  74.6311 285.5055 13.17649568215628
ONEWEB-0443             
1 51637U 22012R   26183.03157071 -.00000039  00000+0 -13270-3 0  9992
2 51637  87.9135   2.9256 0001536  84.7199 275.4108 13.17649178215679
ONEWEB-0444             
1 51638U 22012S   26183.13891695 -.00000422  00000+0 -12448-2 0  9992
2 51638  87.8814  33.2882 0001665  84.1086 276.0231 13.10371887211297
ONEWEB-0445             
1 51639U 22012T   26183.08288362 -.00000509  00000+0 -14951-2 0  9995
2 51639  87.8844  33.2865 0002101  89.8624 270.2744 13.10374206211291
ONEWEB-0446             
1 51640U 22012U   26183.13718772 -.00000705  00000+0 -20566-2 0  9993
2 51640  87.8812  33.3055 0002120  86.6610 273.4759 13.10376722211286
ONEWEB-0448             
1 51641U 22012V   26182.98959709 -.00000426  00000+0 -12573-2 0  9992
2 51641  87.8813  33.3313 0001821  85.3428 274.7908 13.10373069211231
ONEWEB-0449             
1 51642U 22012W   26183.14737860 -.00000979  00000+0 -28396-2 0  9997
2 51642  87.8822  33.2855 0002148  71.0822 289.0538 13.10375917211260
ONEWEB-0451             
1 51643U 22012X   26183.24420679  .00000008  00000+0 -13433-4 0  9996
2 51643  87.9145   2.8486 0001852  83.6570 276.4773 13.17649690215648
ONEWEB-0452             
1 51644U 22012Y   26183.24250724  .00000002  00000+0 -28018-4 0  9998
2 51644  87.9136   2.8845 0001637  82.0973 278.0344 13.17649412215654
ONEWEB-0456             
1 51646U 22012AA  26183.00312331 -.00000545  00000+0 -15978-2 0  9999
2 51646  87.8829  33.3034 0001722  88.5864 271.5461 13.10373000211281
ONEWEB-0457             
1 51647U 22012AB  26183.13369921 -.00000136  00000+0 -42634-3 0  9997
2 51647  87.8816  33.2936 0002201  83.4194 276.7184 13.10371623211302
ONEWEB-0458             
1 51648U 22012AC  26183.00229685 -.00000527  00000+0 -15472-2 0  9999
2 51648  87.8822  33.3079 0001681  80.5088 279.6230 13.10375406211240
ONEWEB-0461             
1 51649U 22012AD  26183.18851822 -.00000001  00000+0 -35326-4 0  9992
2 51649  87.9144   2.8734 0001986  89.2292 270.9067 13.17649260215862
ONEWEB-0463             
1 51650U 22012AE  26183.24589551  .00000069  00000+0  14491-3 0  9999
2 51650  87.9133   2.8833 0001997  90.4432 269.6929 13.17649393215650
ONEWEB-0464             
1 51651U 22012AF  26182.99979219  .00001833  00000+0  52154-2 0  9992
2 51651  87.8840  33.3284 0001412  82.9633 277.1655 13.10354677211269
ONEWEB-0468             
1 51652U 22012AG  26183.23389335 -.00000532  00000+0 -15595-2 0  9990
2 51652  87.8819  33.2764 0001574  87.8653 272.2655 13.10373148211274
