OBJECT_NAME,OBJECT_ID,EPOCH,MEAN_MOTION,ECCENTRICITY,INCLINATION,RA_OF_ASC_NODE,ARG_OF_PERICENTER,MEAN_ANOMALY,EPHEMERIS_TYPE,CLASSIFICATION_TYPE,NORAD_CAT_ID,ELEMENT_SET_NO,REV_AT_EPOCH,BSTAR,MEAN_MOTION_DOT,MEAN_MOTION_DDOT
ONEWEB-0410,2022-012A,2026-07-02T06:03:48.288672,13.17648948,.00024936,87.9144,2.8609,59.2120,300.9257,0,U,51622,999,21568,-.11689918E-3,-.33E-6,0
ONEWEB-0411,2022-012B,2026-07-02T03:10:17.258016,13.10370996,.0002049,87.8822,33.2902,100.8338,259.3020,0,U,51623,999,21124,-.20044921E-3,-.57E-6,0
ONEWEB-0415,2022-012C,2026-07-02T03:05:24.028512,13.10371299,.00020857,87.8818,33.2891,90.5874,269.5492,0,U,51624,999,21124,.41662019E-3,.158E-5,0
ONEWEB-0416,2022-012D,2026-07-02T03:22:29.410752,13.10371896,.00021724,87.8816,33.3041,88.4491,271.6885,0,U,51625,999,21128,-.13653746E-2,-.464E-5,0
ONEWEB-0422,2022-012E,2026-07-02T00:50:20.356512,13.17650285,.00014395,87.9142,2.9051,107.7835,252.3454,0,U,51626,999,21576,-.59887851E-4,-.1E-6,0
ONEWEB-0423,2022-012F,2026-07-02T00:40:35.784480,13.17651191,.00018217,87.9137,2.9111,86.8974,273.2366,0,U,51627,999,21565,-.1583527E-5,.12E-6,0
ONEWEB-0425,2022-012G,2026-07-01T23:57:14.487840,13.10370910,.00020262,87.8820,33.3167,75.7729,284.3623,0,U,51628,999,21126,-.16778211E-2,-.573E-5,0
ONEWEB-0428,2022-012H,2026-07-02T03:07:50.562048,13.10371228,.00018166,87.8815,33.2968,85.8343,274.2992,0,U,51629,999,21124,.14912476E-3,.65E-6,0
ONEWEB-0431,2022-012J,2026-07-02T02:23:36.765312,13.10376883,.00021177,87.8823,33.2954,102.0848,258.0516,0,U,51630,999,21129,.90769221E-3,.33E-5,0
ONEWEB-0434,2022-012K,2026-07-02T00:02:17.998080,13.10369483,.00019504,87.8825,33.3408,67.0388,293.0945,0,U,51631,999,21126,-.15612657E-2,-.532E-5,0
ONEWEB-0435,2022-012L,2026-07-02T02:01:47.743968,13.10373864,.00016663,87.8820,33.3094,94.6887,265.4430,0,U,51632,999,21126,-.1002013E-2,-.337E-5,0
ONEWEB-0436,2022-012M,2026-07-02T05:56:30.206976,13.17649659,.00017353,87.9141,2.8501,96.6744,263.4585,0,U,51633,999,21566,.10918571E-3,.55E-6,0
ONEWEB-0438,2022-012N,2026-07-02T03:29:48.282144,13.10373287,.00019536,87.8817,33.3007,80.3361,279.7987,0,U,51634,999,21130,-.192393E-2,-.659E-5,0
ONEWEB-0439,2022-012P,2026-07-02T03:34:41.614464,13.10372528,.00018324,87.8819,33.2876,83.6537,276.4799,0,U,51635,999,21128,-.20217901E-2,-.693E-5,0
ONEWEB-0442,2022-012Q,2026-07-02T00:17:33.485568,13.17649568,.00021161,87.9134,2.9284,74.6311,285.5055,0,U,51636,999,21562,-.74134972E-4,-.16E-6,0
ONEWEB-0443,2022-012R,2026-07-02T00:45:27.709344,13.17649178,.00015361,87.9135,2.9256,84.7199,275.4108,0,U,51637,999,21567,-.13270296E-3,-.39E-6,0
ONEWEB-0444,2022-012S,2026-07-02T03:20:02.424480,13.10371887,.00016657,87.8814,33.2882,84.1086,276.0231,0,U,51638,999,21129,-.12448364E-2,-.422E-5,0
ONEWEB-0445,2022-012T,2026-07-02T01:59:21.144768,13.10374206,.00021014,87.8844,33.2865,89.8624,270.2744,0,U,51639,999,21129,-.14950688E-2,-.509E-5,0
ONEWEB-0446,2022-012U,2026-07-02T03:17:33.019008,13.10376722,.00021202,87.8812,33.3055,86.6610,273.4759,0,U,51640,999,21128,-.20566161E-2,-.705E-5,0
ONEWEB-0448,2022-012V,2026-07-01T23:45:01.188576,13.10373069,.00018215,87.8813,33.3313,85.3428,274.7908,0,U,51641,999,21123,-.12572644E-2,-.426E-5,0
ONEWEB-0449,2022-012W,2026-07-02T03:32:13.511040,13.10375917,.00021484,87.8822,33.2855,71.0822,289.0538,0,U,51642,999,21126,-.28395913E-2,-.979E-5,0
ONEWEB-0451,2022-012X,2026-07-02T05:51:39.466656,13.17649690,.00018527,87.9145,2.8486,83.6570,276.4773,0,U,51643,999,21564,-.13433218E-4,.8E-7,0
ONEWEB-0452,2022-012Y,2026-07-02T05:49:12.625536,13.17649412,.00016377,87.9136,2.8845,82.0973,278.0344,0,U,51644,999,21565,-.28018102E-4,.2E-7,0
ONEWEB-0456,2022-012AA,2026-07-02T00:04:29.853984,13.10373000,.00017228,87.8829,33.3034,88.5864,271.5461,0,U,51646,999,21128,-.15977811E-2,-.545E-5,0
ONEWEB-0457,2022-012AB,2026-07-02T03:12:31.611744,13.10371623,.00022019,87.8816,33.2936,83.4194,276.7184,0,U,51647,999,21130,-.42634032E-3,-.136E-5,0
ONEWEB-0458,2022-012AC,2026-07-02T00:03:18.447840,13.10375406,.00016818,87.8822,33.3079,80.5088,279.6230,0,U,51648,999,21124,-.15472054E-2,-.527E-5,0
ONEWEB-0461,2022-012AD,2026-07-02T04:31:27.974208,13.17649260,.00019863,87.9144,2.8734,89.2292,270.9067,0,U,51649,999,21586,-.35326187E-4,-.1E-7,0
ONEWEB-0463,2022-012AE,2026-07-02T05:54:05.372064,13.17649393,.00019975,87.9133,2.8833,90.4432,269.6929,0,U,51650,999,21565,.14491409E-3,.69E-6,0
ONEWEB-0464,2022-012AF,2026-07-01T23:59:42.045216,13.10354677,.00014129,87.8840,33.3284,82.9633,277.1655,0,U,51651,999,21126,.5215403E-2,.1833E-4,0
ONEWEB-0468,2022-012AG,2026-07-02T05:36:48.385440,13.10373148,.00015747,87.8819,33.2764,87.8653,272.2655,0,U,51652,999,21127,-.15594519E-2,-.532E-5,0
